NORAD_CAT_ID,OBJECT_NAME,OBJECT_TYPE,EPOCH,MEAN_MOTION,ECCENTRICITY,INCLINATION,RA_OF_ASC_NODE,ARG_OF_PERICENTER,MEAN_ANOMALY,BSTAR,MEAN_MOTION_DOT,MEAN_MOTION_DDOT,TLE_LINE0,TLE_LINE1,TLE_LINE2,SEMIMAJOR_AXIS,PERIOD,APOGEE,PERIGEE,DECAYED
55763.0,STARLINK-5593,PAYLOAD,2023-09-18 00:33:32,14.98336526,0.0002868,70.0021,2.7628,273.8553,86.2278,-8.0841e-06,-1.89e-06,0.0,0 STARLINK-5593,1 55763U 23028Y   23261.02329025 -.00000189  00000-0 -80841-5 0  9994,2 55763  70.0021   2.7628 0002868 273.8553  86.2278 14.98336526 30687,6950.173,96.107,574.031,570.044,0.0
55763.0,STARLINK-5593,PAYLOAD,2023-09-18 10:10:20,14.98328473,0.0002982,70.0005,1.7505,268.634,91.4477,-2.6587e-05,-4.1e-06,0.0,0 STARLINK-5593,1 55763U 23028Y   23261.42385410 -.00000410  00000-0 -26587-4 0  9991,2 55763  70.0005   1.7505 0002982 268.6340  91.4477 14.98328473 30743,6950.198,96.107,574.135,569.99,0.0
55763.0,STARLINK-5593,PAYLOAD,2023-09-18 13:22:37,14.98326569,0.0003037,70.0013,1.4157,270.2896,89.7915,-4.242e-05,-5.99e-06,0.0,0 STARLINK-5593,1 55763U 23028Y   23261.55737608 -.00000599  00000-0 -42420-4 0  9997,2 55763  70.0013   1.4157 0003037 270.2896  89.7915 14.98326569 30762,6950.204,96.107,574.179,569.958,0.0
55763.0,STARLINK-5593,PAYLOAD,2023-09-18 18:11:00,14.98334865,0.0002955,70.0015,0.9136,263.0707,97.0116,-2.2068e-05,-3.56e-06,0.0,0 STARLINK-5593,1 55763U 23028Y   23261.75764954 -.00000356  00000-0 -22068-4 0  9990,2 55763  70.0015   0.9136 0002955 263.0707  97.0116 14.98334865 30790,6950.178,96.107,574.097,569.989,0.0
55763.0,STARLINK-5593,PAYLOAD,2023-09-19 10:12:21,14.98336936,0.0002953,70.0012,359.2274,268.2166,91.8655,6.8289e-05,7.22e-06,0.0,0 STARLINK-5593,1 55763U 23028Y   23262.42524311  .00000722  00000-0  68289-4 0  9996,2 55763  70.0012 359.2274 0002953 268.2166  91.8655 14.98336936 30896,6950.171,96.107,574.089,569.984,0.0
55763.0,STARLINK-5593,PAYLOAD,2023-09-19 16:36:52,14.98345704,0.0002789,70.0019,358.5553,273.2597,86.8243,0.00013642,1.536e-05,0.0,0 STARLINK-5593,1 55763U 23028Y   23262.69227442  .00001536  00000-0  13642-3 0  9996,2 55763  70.0019 358.5553 0002789 273.2597  86.8243 14.98345704 30931,6950.144,96.106,573.948,570.071,0.0
55763.0,STARLINK-5593,PAYLOAD,2023-09-20 10:14:23,14.98315123,0.0003202,70.0007,356.7027,271.6401,88.4391,-0.00010103,-1.298e-05,0.0,0 STARLINK-5593,1 55763U 23028Y   23263.42665999 -.00001298  00000-0 -10103-3 0  9997,2 55763  70.0007 356.7027 0003202 271.6401  88.4391 14.98315123 31048,6950.239,96.108,574.329,569.878,0.0
55763.0,STARLINK-5593,PAYLOAD,2023-09-20 13:26:39,14.98316766,0.0003245,70.0004,356.3664,266.992,93.0868,-0.00013291,-1.678e-05,0.0,0 STARLINK-5593,1 55763U 23028Y   23263.56018046 -.00001678  00000-0 -13291-3 0  9990,2 55763  70.0004 356.3664 0003245 266.9920  93.0868 14.98316766 31065,6950.234,96.108,574.354,569.843,0.0
55763.0,STARLINK-5593,PAYLOAD,2023-09-20 16:38:55,14.98317341,0.0003117,70.0008,356.0306,262.5094,97.5711,-0.00011724,-1.491e-05,0.0,0 STARLINK-5593,1 55763U 23028Y   23263.69370073 -.00001491  00000-0 -11724-3 0  9997,2 55763  70.0008 356.0306 0003117 262.5094  97.5711 14.98317341 31089,6950.232,96.108,574.263,569.931,0.0
55763.0,STARLINK-5593,PAYLOAD,2023-09-21 10:16:24,14.98328111,0.0003195,70.0005,354.1779,267.3442,92.7351,-0.00012474,-1.581e-05,0.0,0 STARLINK-5593,1 55763U 23028Y   23264.42805743 -.00001581  00000-0 -12474-3 0  9999,2 55763  70.0005 354.1779 0003195 267.3442  92.7351 14.98328111 31191,6950.199,96.107,574.284,569.843,0.0
55763.0,STARLINK-5593,PAYLOAD,2023-09-21 13:28:40,14.98330803,0.0003192,70.0005,353.8417,267.2711,92.8083,-0.0001248,-1.582e-05,0.0,0 STARLINK-5593,1 55763U 23028Y   23264.56157589 -.00001582  00000-0 -12480-3 0  9990,2 55763  70.0005 353.8417 0003192 267.2711  92.8083 14.98330803 31218,6950.19,96.107,574.274,569.837,0.0
55763.0,STARLINK-5593,PAYLOAD,2023-09-21 16:40:56,14.98333218,0.0003175,70.0006,353.5053,266.6949,93.3846,-9.3294e-05,-1.206e-05,0.0,0 STARLINK-5593,1 55763U 23028Y   23264.69509342 -.00001206  00000-0 -93294-4 0  9998,2 55763  70.0006 353.5053 0003175 266.6949  93.3846 14.98333218 31237,6950.183,96.107,574.255,569.841,0.0
55763.0,STARLINK-5593,PAYLOAD,2023-09-21 23:05:27,14.9834097,0.0003363,70.0005,352.8316,266.1296,93.9478,-8.425e-05,-1.098e-05,0.0,0 STARLINK-5593,1 55763U 23028Y   23264.96212719 -.00001098  00000-0 -84250-4 0  9998,2 55763  70.0005 352.8316 0003363 266.1296  93.9478 14.98340970 31273,6950.159,96.106,574.361,569.687,0.0
55763.0,STARLINK-5593,PAYLOAD,2023-09-22 13:30:39,14.98335293,0.0003311,70.0004,351.3166,264.7593,95.3188,0.00028238,3.278e-05,0.0,0 STARLINK-5593,1 55763U 23028Y   23265.56296101  .00003278  00000-0  28238-3 0  9995,2 55763  70.0004 351.3166 0003311 264.7593  95.3188 14.98335293 31362,6950.177,96.107,574.343,569.74,0.0
55763.0,STARLINK-5593,PAYLOAD,2023-09-22 15:06:47,14.98337067,0.0003304,70.0005,351.1484,264.5678,95.5104,0.00029647,3.447e-05,0.0,0 STARLINK-5593,1 55763U 23028Y   23265.62971927  .00003447  00000-0  29647-3 0  9991,2 55763  70.0005 351.1484 0003304 264.5678  95.5104 14.98337067 31370,6950.171,96.107,574.332,569.74,0.0
55763.0,STARLINK-5593,PAYLOAD,2023-09-23 11:56:33,14.98328389,0.0003231,70.0006,348.9603,264.887,95.1921,1.3325e-05,6.6e-07,0.0,0 STARLINK-5593,1 55763U 23028Y   23266.49761128  .00000066  00000-0  13325-4 0  9998,2 55763  70.0006 348.9603 0003231 264.8870  95.1921 14.98328389 31509,6950.198,96.107,574.308,569.817,0.0
55763.0,STARLINK-5593,PAYLOAD,2023-09-23 13:32:41,14.98329931,0.0003215,70.0007,348.792,264.7303,95.3489,2.9641e-05,2.61e-06,0.0,0 STARLINK-5593,1 55763U 23028Y   23266.56436975  .00000261  00000-0  29641-4 0  9990,2 55763  70.0007 348.7920 0003215 264.7303  95.3489 14.98329931 31518,6950.193,96.107,574.293,569.824,0.0
55763.0,STARLINK-5593,PAYLOAD,2023-09-24 13:34:43,14.98327163,0.0002876,70.0016,346.269,256.2236,103.8603,-0.00018738,-2.328e-05,0.0,0 STARLINK-5593,1 55763U 23028Y   23267.56577733 -.00002328  00000-0 -18738-3 0  9991,2 55763  70.0016 346.2690 0002876 256.2236 103.8603 14.98327163 31662,6950.202,96.107,574.066,570.068,0.0
55763.0,STARLINK-5593,PAYLOAD,2023-09-24 15:10:51,14.9832703,0.0002885,70.0015,346.1007,256.8018,103.2819,-0.00018579,-2.309e-05,0.0,0 STARLINK-5593,1 55763U 23028Y   23267.63253749 -.00002309  00000-0 -18579-3 0  9999,2 55763  70.0015 346.1007 0002885 256.8018 103.2819 14.98327030 31673,6950.202,96.107,574.072,570.062,0.0
55763.0,STARLINK-5593,PAYLOAD,2023-09-25 08:48:18,14.98335401,0.0003104,70.0007,344.248,264.9266,95.1539,9.221e-05,1.008e-05,0.0,0 STARLINK-5593,1 55763U 23028Y   23268.36688371  .00001008  00000-0  92210-4 0  9991,2 55763  70.0007 344.2480 0003104 264.9266  95.1539 14.98335401 31789,6950.176,96.107,574.199,569.884,0.0
55763.0,STARLINK-5593,PAYLOAD,2023-09-25 13:36:42,14.98343126,0.0003002,70.0008,343.7439,264.6695,95.4121,0.00018267,2.088e-05,0.0,0 STARLINK-5593,1 55763U 23028Y   23268.56715554  .00002088  00000-0  18267-3 0  9995,2 55763  70.0008 343.7439 0003002 264.6695  95.4121 14.98343126 31815,6950.152,96.106,574.104,569.931,0.0
55763.0,STARLINK-5593,PAYLOAD,2023-09-25 15:12:50,14.98343808,0.0003004,70.0008,343.5755,264.7565,95.3252,0.0001872,2.142e-05,0.0,0 STARLINK-5593,1 55763U 23028Y   23268.63391452  .00002142  00000-0  18720-3 0  9995,2 55763  70.0008 343.5755 0003004 264.7565  95.3252 14.98343808 31825,6950.15,96.106,574.103,569.927,0.0
55763.0,STARLINK-5593,PAYLOAD,2023-09-26 10:26:28,14.98324029,0.0002798,70.0024,341.5582,243.6409,116.4463,5.4436e-05,5.57e-06,0.0,0 STARLINK-5593,1 55763U 23028Y   23269.43505017  .00000557  00000-0  54436-4 0  9991,2 55763  70.0024 341.5582 0002798 243.6409 116.4463 14.98324029 31947,6950.211,96.107,574.021,570.132,0.0
55763.0,STARLINK-5593,PAYLOAD,2023-09-26 13:38:44,14.98321587,0.000286,70.0016,341.2205,247.6747,112.4109,4e-05,3.84e-06,0.0,0 STARLINK-5593,1 55763U 23028Y   23269.56857293  .00000384  00000-0  40000-4 0  9991,2 55763  70.0016 341.2205 0002860 247.6747 112.4109 14.98321587 31967,6950.219,96.108,574.072,570.096,0.0
55763.0,STARLINK-5593,PAYLOAD,2023-09-26 15:14:52,14.98326257,0.0003083,70.0001,341.0494,267.2665,92.8141,7.5816e-05,8.12e-06,0.0,0 STARLINK-5593,1 55763U 23028Y   23269.63532933  .00000812  00000-0  75816-4 0  9999,2 55763  70.0001 341.0494 0003083 267.2665  92.8141 14.98326257 31971,6950.204,96.107,574.212,569.927,0.0
55763.0,STARLINK-5593,PAYLOAD,2023-09-27 08:52:20,14.98339102,0.0003119,69.9997,339.1973,266.8676,93.2127,-8.8989e-05,-1.155e-05,0.0,0 STARLINK-5593,1 55763U 23028Y   23270.36968467 -.00001155  00000-0 -88989-4 0  9994,2 55763  69.9997 339.1973 0003119 266.8676  93.2127 14.98339102 32084,6950.165,96.106,574.198,569.862,0.0
55763.0,STARLINK-5593,PAYLOAD,2023-09-27 12:04:36,14.9834112,0.000303,69.9998,338.8607,266.4959,93.5853,-6.1786e-05,-8.3e-06,0.0,0 STARLINK-5593,1 55763U 23028Y   23270.50320187 -.00000830  00000-0 -61786-4 0  9996,2 55763  69.9998 338.8607 0003030 266.4959  93.5853 14.98341120 32102,6950.159,96.106,574.129,569.918,0.0
55763.0,STARLINK-5593,PAYLOAD,2023-09-28 12:06:38,14.98322487,0.0002762,70.0005,336.3361,259.6176,100.4672,-1.5776e-05,-2.81e-06,0.0,0 STARLINK-5593,1 55763U 23028Y   23271.50461137 -.00000281  00000-0 -15776-4 0  9996,2 55763  70.0005 336.3361 0002762 259.6176 100.4672 14.98322487 32258,6950.216,96.107,574.001,570.161,0.0
55763.0,STARLINK-5593,PAYLOAD,2023-09-28 13:42:46,14.98322771,0.0002762,70.0005,336.1678,259.914,100.1707,-1.311e-05,-2.49e-06,0.0,0 STARLINK-5593,1 55763U 23028Y   23271.57137139 -.00000249  00000-0 -13110-4 0  9999,2 55763  70.0005 336.1678 0002762 259.9140 100.1707 14.98322771 32264,6950.215,96.107,574.0,570.161,0.0
55763.0,STARLINK-5593,PAYLOAD,2023-09-29 10:32:30,14.98331005,0.000274,70.0005,333.9797,257.0526,103.0327,-1.6715e-05,-2.92e-06,0.0,0 STARLINK-5593,1 55763U 23028Y   23272.43924674 -.00000292  00000-0 -16715-4 0  9995,2 55763  70.0005 333.9797 0002740 257.0526 103.0327 14.98331005 32398,6950.19,96.107,573.959,570.15,0.0
